{
  "norad_id": 63316,
  "name": "STARLINK-11645 [DTC]",
  "history": [
    {
      "epoch": "2026-03-28T21:15:29.884320",
      "apogee_km": 356.9339593383638,
      "perigee_km": 355.8092963975105,
      "latitude_deg": -42.91302376942387,
      "longitude_deg": -123.36679519992322,
      "semi_major_axis_km": 6734.508627867937,
      "eccentricity": 8.35e-05,
      "inclination_deg": 43.0012,
      "raan_deg": 149.0917,
      "arg_perigee_deg": 296.4203,
      "mean_anomaly_deg": 63.6579,
      "mean_motion_rev_day": 15.70883187
    }
  ]
}